{
  "type": "FeatureCollection",
  "features": [
    {
      "type": "Feature",
      "properties": {
        "norad_id": 30596,
        "name": "FENGYUN 1C DEB",
        "group": "fengyun-1c-debris",
        "lat": -42.51511156100159,
        "lon": 3.4718537234979077,
        "alt_km": 698.1795271520914,
        "timestamp": "2025-12-24T05:51:19.885873+00:00",
        "meta_object_name": "FENGYUN 1C DEB",
        "meta_object_id": "1999-025AMB",
        "meta_epoch": "2025-12-23T23:37:38.936352",
        "meta_mean_motion": 14.34386778,
        "meta_eccentricity": 0.02470863,
        "meta_inclination": 98.4134,
        "meta_ra_of_asc_node": 355.4204,
        "meta_arg_of_pericenter": 255.4531,
        "meta_mean_anomaly": 159.8238,
        "meta_ephemeris_type": 0,
        "meta_classification_type": "U",
        "meta_norad_cat_id": 30596,
        "meta_element_set_no": 999,
        "meta_rev_at_epoch": 98722,
        "meta_bstar": 0.00024574818,
        "meta_mean_motion_dot": 9.2e-06,
        "meta_mean_motion_ddot": 0,
        "tle_line1": "1 30596U 99025AMB 25357.98447843  .00000920  00000+0  24575-3 0  9993",
        "tle_line2": "2 30596  98.4134 355.4204 0247086 255.4531 159.8238 14.34386778987224"
      },
      "geometry": {
        "type": "Point",
        "coordinates": [
          3.4718537234979077,
          -42.51511156100159
        ]
      }
    },
    {
      "type": "Feature",
      "properties": {
        "norad_id": 30597,
        "name": "FENGYUN 1C DEB",
        "group": "fengyun-1c-debris",
        "lat": 80.3389168431926,
        "lon": -176.0881761811335,
        "alt_km": 552.5723201068467,
        "timestamp": "2025-12-24T05:51:19.885884+00:00",
        "meta_object_name": "FENGYUN 1C DEB",
        "meta_object_id": "1999-025AMC",
        "meta_epoch": "2025-12-22T06:48:12.369600",
        "meta_mean_motion": 14.93233042,
        "meta_eccentricity": 0.0046403,
        "meta_inclination": 98.9414,
        "meta_ra_of_asc_node": 294.0371,
        "meta_arg_of_pericenter": 132.6811,
        "meta_mean_anomaly": 227.8328,
        "meta_ephemeris_type": 0,
        "meta_classification_type": "U",
        "meta_norad_cat_id": 30597,
        "meta_element_set_no": 999,
        "meta_rev_at_epoch": 98679,
        "meta_bstar": 0.0052136953,
        "meta_mean_motion_dot": 0.00056011,
        "meta_mean_motion_ddot": 0,
        "tle_line1": "1 30597U 99025AMC 25356.28347650  .00056011  00000+0  52137-2 0  9997",
        "tle_line2": "2 30597  98.9414 294.0371 0046403 132.6811 227.8328 14.93233042986798"
      },
      "geometry": {
        "type": "Point",
        "coordinates": [
          -176.0881761811335,
          80.3389168431926
        ]
      }
    },
    {
      "type": "Feature",
      "properties": {
        "norad_id": 30599,
        "name": "FENGYUN 1C DEB",
        "group": "fengyun-1c-debris",
        "lat": 33.916194900362335,
        "lon": 3.719858661805389,
        "alt_km": 791.1114817546695,
        "timestamp": "2025-12-24T05:51:19.885894+00:00",
        "meta_object_name": "FENGYUN 1C DEB",
        "meta_object_id": "1999-025AME",
        "meta_epoch": "2025-12-22T06:20:23.996832",
        "meta_mean_motion": 14.1973512,
        "meta_eccentricity": 0.03018402,
        "meta_inclination": 98.6022,
        "meta_ra_of_asc_node": 7.6345,
        "meta_arg_of_pericenter": 317.1611,
        "meta_mean_anomaly": 40.6398,
        "meta_ephemeris_type": 0,
        "meta_classification_type": "U",
        "meta_norad_cat_id": 30599,
        "meta_element_set_no": 999,
        "meta_rev_at_epoch": 97302,
        "meta_bstar": 0.00072444523,
        "meta_mean_motion_dot": 2.37e-05,
        "meta_mean_motion_ddot": 0,
        "tle_line1": "1 30599U 99025AME 25356.26416663  .00002370  00000+0  72445-3 0  9992",
        "tle_line2": "2 30599  98.6022   7.6345 0301840 317.1611  40.6398 14.19735120973020"
      },
      "geometry": {
        "type": "Point",
        "coordinates": [
          3.719858661805389,
          33.916194900362335
        ]
      }
    },
    {
      "type": "Feature",
      "properties": {
        "norad_id": 30600,
        "name": "FENGYUN 1C DEB",
        "group": "fengyun-1c-debris",
        "lat": -4.682244656630446,
        "lon": -57.10855819073985,
        "alt_km": 1051.563575780955,
        "timestamp": "2025-12-24T05:51:19.885907+00:00",
        "meta_object_name": "FENGYUN 1C DEB",
        "meta_object_id": "1999-025AMF",
        "meta_epoch": "2025-12-22T19:45:34.111008",
        "meta_mean_motion": 14.07639509,
        "meta_eccentricity": 0.03264323,
        "meta_inclination": 98.3895,
        "meta_ra_of_asc_node": 300.8763,
        "meta_arg_of_pericenter": 218.4416,
        "meta_mean_anomaly": 139.309,
        "meta_ephemeris_type": 0,
        "meta_classification_type": "U",
        "meta_norad_cat_id": 30600,
        "meta_element_set_no": 999,
        "meta_rev_at_epoch": 94574,
        "meta_bstar": 0.0023241533,
        "meta_mean_motion_dot": 6.358e-05,
        "meta_mean_motion_ddot": 0,
        "tle_line1": "1 30600U 99025AMF 25356.82331147  .00006358  00000+0  23242-2 0  9990",
        "tle_line2": "2 30600  98.3895 300.8763 0326432 218.4416 139.3090 14.07639509945744"
      },
      "geometry": {
        "type": "Point",
        "coordinates": [
          -57.10855819073985,
          -4.682244656630446
        ]
      }
    },
    {
      "type": "Feature",
      "properties": {
        "norad_id": 30602,
        "name": "FENGYUN 1C DEB",
        "group": "fengyun-1c-debris",
        "lat": -74.95950885763723,
        "lon": 57.49403381575638,
        "alt_km": 605.8223672393833,
        "timestamp": "2025-12-24T05:51:19.885918+00:00",
        "meta_object_name": "FENGYUN 1C DEB",
        "meta_object_id": "1999-025AMH",
        "meta_epoch": "2025-12-23T11:14:34.423008",
        "meta_mean_motion": 14.92718644,
        "meta_eccentricity": 0.00138052,
        "meta_inclination": 99.0335,
        "meta_ra_of_asc_node": 272.9087,
        "meta_arg_of_pericenter": 91.2419,
        "meta_mean_anomaly": 321.435,
        "meta_ephemeris_type": 0,
        "meta_classification_type": "U",
        "meta_norad_cat_id": 30602,
        "meta_element_set_no": 999,
        "meta_rev_at_epoch": 97965,
        "meta_bstar": 0.0074566759,
        "meta_mean_motion_dot": 0.00077869,
        "meta_mean_motion_ddot": 0,
        "tle_line1": "1 30602U 99025AMH 25357.46845397  .00077869  00000+0  74567-2 0  9991",
        "tle_line2": "2 30602  99.0335 272.9087 0013805  91.2419 321.4350 14.92718644979650"
      },
      "geometry": {
        "type": "Point",
        "coordinates": [
          57.49403381575638,
          -74.95950885763723
        ]
      }
    },
    {
      "type": "Feature",
      "properties": {
        "norad_id": 30603,
        "name": "FENGYUN 1C DEB",
        "group": "fengyun-1c-debris",
        "lat": 52.187786222883574,
        "lon": 8.974802135620989,
        "alt_km": 1011.544937625963,
        "timestamp": "2025-12-24T05:51:19.885928+00:00",
        "meta_object_name": "FENGYUN 1C DEB",
        "meta_object_id": "1999-025AMJ",
        "meta_epoch": "2025-12-23T12:59:08.371968",
        "meta_mean_motion": 13.84154416,
        "meta_eccentricity": 0.01834923,
        "meta_inclination": 98.4081,
        "meta_ra_of_asc_node": 19.3324,
        "meta_arg_of_pericenter": 175.9095,
        "meta_mean_anomaly": 338.3171,
        "meta_ephemeris_type": 0,
        "meta_classification_type": "U",
        "meta_norad_cat_id": 30603,
        "meta_element_set_no": 999,
        "meta_rev_at_epoch": 95025,
        "meta_bstar": 0.0011473428,
        "meta_mean_motion_dot": 1.42e-05,
        "meta_mean_motion_ddot": 0,
        "tle_line1": "1 30603U 99025AMJ 25357.54106912  .00001420  00000+0  11473-2 0  9991",
        "tle_line2": "2 30603  98.4081  19.3324 0183492 175.9095 338.3171 13.84154416950253"
      },
      "geometry": {
        "type": "Point",
        "coordinates": [
          8.974802135620989,
          52.187786222883574
        ]
      }
    },
    {
      "type": "Feature",
      "properties": {
        "norad_id": 30604,
        "name": "FENGYUN 1C DEB",
        "group": "fengyun-1c-debris",
        "lat": -81.48292446953306,
        "lon": 113.26608023048256,
        "alt_km": 746.9191921631227,
        "timestamp": "2025-12-24T05:51:19.885940+00:00",
        "meta_object_name": "FENGYUN 1C DEB",
        "meta_object_id": "1999-025AMK",
        "meta_epoch": "2025-12-23T20:59:55.032864",
        "meta_mean_motion": 14.23628516,
        "meta_eccentricity": 0.02090378,
        "meta_inclination": 98.4012,
        "meta_ra_of_asc_node": 32.2233,
        "meta_arg_of_pericenter": 334.228,
        "meta_mean_anomaly": 208.9814,
        "meta_ephemeris_type": 0,
        "meta_classification_type": "U",
        "meta_norad_cat_id": 30604,
        "meta_element_set_no": 999,
        "meta_rev_at_epoch": 97997,
        "meta_bstar": 0.00028776995,
        "meta_mean_motion_dot": 7.75e-06,
        "meta_mean_motion_ddot": 0,
        "tle_line1": "1 30604U 99025AMK 25357.87494251  .00000775  00000+0  28777-3 0  9992",
        "tle_line2": "2 30604  98.4012  32.2233 0209037 334.2280 208.9814 14.23628516979978"
      },
      "geometry": {
        "type": "Point",
        "coordinates": [
          113.26608023048256,
          -81.48292446953306
        ]
      }
    }
  ]
}